BEIDOU-3 G1             
1 43683U 18085A   26062.97073001 -.00000290  00000+0  00000+0 0  9999
2 43683   2.8094 100.3977 0001338  25.9215 164.9072  1.00268635 27004
COSMOS 2529 [GLONASS-M] 
1 43687U 18086A   26058.37448306  .00000008  00000+0  00000+0 0  9993
2 43687  64.2955 196.2992 0007959 253.0448 106.8346  2.13101880 56941
BEIDOU-3 M17            
1 43706U 18093A   26061.46828306 -.00000026  00000+0  00000+0 0  9990
2 43706  54.1714 185.9163 0006994 297.4131  70.7484  1.86228347 49556
BEIDOU-3 M18            
1 43707U 18093B   26061.31825568 -.00000028  00000+0  00000+0 0  9994
2 43707  54.1724 185.9133 0006020 341.6195  18.3110  1.86226384 49549
NAVSTAR 77 (USA 289)    
1 43873U 18109A   26062.55311155  .00000019  00000+0  00000+0 0  9994
2 43873  55.6145  96.3528 0037895 198.2737 333.9980  2.00556711 52958
BEIDOU-3 IGSO-1         
1 44204U 19023A   26062.82416976 -.00000206  00000+0  00000+0 0  9995
2 44204  58.5529  38.7313 0026007 236.5299 302.2114  1.00271041  6157
BEIDOU-2 G8             
1 44231U 19027A   26062.40122155 -.00000262  00000+0  00000+0 0  9998
2 44231   1.8655  74.7300 0009271 269.3734 105.9868  1.00268063 25027
COSMOS 2534 [GLONASS-M] 
1 44299U 19030A   26062.65441443 -.00000004  00000+0  00000+0 0  9991
2 44299  64.3688 196.1668 0009568 280.0385 257.7323  2.13102169 52670
BEIDOU-3 IGSO-2         
1 44337U 19035A   26057.68879618 -.00000176  00000+0  00000+0 0  9995
2 44337  55.2338 159.8353 0038734 206.4752 153.7223  1.00247364 24561
NAVSTAR 78 (USA 293)    
1 44506U 19056A   26062.19130605 -.00000098  00000+0  00000+0 0  9997
2 44506  55.6853 335.3576 0058023 198.1770 333.1087  2.00568213 47942
BEIDOU-3 M24            
1 44542U 19061A   26062.46218233 -.00000017  00000+0  00000+0 0  9998
2 44542  54.3994 186.2929 0008607  21.3432 338.6489  1.86228787 43825
BEIDOU-3 M23            
1 44543U 19061B   26062.31966779 -.00000018  00000+0  00000+0 0  9999
2 44543  54.3976 186.2660 0005077  14.2210 162.4807  1.86227170 43823
EUTELSAT 5 WEST B       
1 44624U 19067A   26062.93447529 -.00000056  00000+0  00000+0 0  9992
2 44624   0.0960 309.7842 0003205  41.6125 141.6667  1.00272534 23380
BEIDOU-3 IGSO-3         
1 44709U 19073A   26062.00508347 -.00000154  00000+0  00000+0 0  9996
2 44709  54.9806 282.0451 0040489 189.0046 170.9845  1.00269768 23393
BEIDOU-3 M22            
1 44793U 19078A   26059.07985671 -.00000039  00000+0  00000+0 0  9998
2 44793  54.0347 303.6688 0007221  34.9561 325.1493  1.86231871 42613
BEIDOU-3 M21            
1 44794U 19078B   26062.44110506 -.00000055  00000+0  00000+0 0  9999
2 44794  54.0047 303.5128 0005885  39.3589 320.7432  1.86227535 42685
COSMOS 2544 [GLONASS-M] 
1 44850U 19088A   26062.44551424  .00000024  00000+0  00000+0 0  9996
2 44850  65.5052  77.2588 0015744 259.4507 100.4201  2.13101810 48463
